NORAD_CAT_ID,OBJECT_NAME,OBJECT_TYPE,EPOCH,MEAN_MOTION,ECCENTRICITY,INCLINATION,RA_OF_ASC_NODE,ARG_OF_PERICENTER,MEAN_ANOMALY,BSTAR,MEAN_MOTION_DOT,MEAN_MOTION_DDOT,TLE_LINE0,TLE_LINE1,TLE_LINE2,SEMIMAJOR_AXIS,PERIOD,APOGEE,PERIGEE,DECAYED
53276.0,STARLINK-4174,PAYLOAD,2024-01-07 14:25:03,15.08836335,0.0001408,53.2177,139.9504,102.9856,257.1293,3.6156e-05,2.87e-06,0.0,0 STARLINK-4174,1 53276U 22086AL  24007.60073135  .00000287  00000-0  36156-4 0  9991,2 53276  53.2177 139.9504 0001408 102.9856 257.1293 15.08836335 81612,6917.892,95.438,540.731,538.783,0.0
53276.0,STARLINK-4174,PAYLOAD,2024-01-08 14:15:49,15.08842171,0.0001309,53.2175,135.4867,119.1596,240.9527,9.7616e-05,1.266e-05,0.0,0 STARLINK-4174,1 53276U 22086AL  24008.59432857  .00001266  00000-0  97616-4 0  9996,2 53276  53.2175 135.4867 0001309 119.1596 240.9527 15.08842171 81765,6917.874,95.437,540.644,538.833,0.0
53276.0,STARLINK-4174,PAYLOAD,2024-01-08 15:51:13,15.08843328,0.0001238,53.2173,135.1868,113.8022,246.31,0.00010658,1.409e-05,0.0,0 STARLINK-4174,1 53276U 22086AL  24008.66056758  .00001409  00000-0  10658-3 0  9995,2 53276  53.2173 135.1868 0001238 113.8022 246.3100 15.08843328 81602,6917.87,95.437,540.592,538.879,0.0
53276.0,STARLINK-4174,PAYLOAD,2024-01-09 14:06:36,15.08847572,0.0001243,53.2158,131.0264,73.0857,287.0272,7.5597e-05,9.16e-06,0.0,0 STARLINK-4174,1 53276U 22086AL  24009.58792704  .00000916  00000-0  75597-4 0  9991,2 53276  53.2158 131.0264 0001243  73.0857 287.0272 15.08847572 81910,6917.857,95.437,540.582,538.862,0.0
53276.0,STARLINK-4174,PAYLOAD,2024-01-09 15:41:59,15.08850863,0.0001553,53.2168,130.727,62.0804,298.0345,0.00015747,2.22e-05,0.0,0 STARLINK-4174,1 53276U 22086AL  24009.65416392  .00002220  00000-0  15747-3 0  9995,2 53276  53.2168 130.7270 0001553  62.0804 298.0345 15.08850863 81929,6917.847,95.437,540.787,538.638,0.0
53276.0,STARLINK-4174,PAYLOAD,2024-01-10 07:35:51,15.08841019,0.0001186,53.2176,127.7543,109.2561,250.856,-2.1472e-05,-6.3e-06,0.0,0 STARLINK-4174,1 53276U 22086AL  24010.31657355 -.00000630  00000-0 -21472-4 0  9994,2 53276  53.2176 127.7543 0001186 109.2561 250.8560 15.08841019 81853,6917.877,95.437,540.563,538.922,0.0
53276.0,STARLINK-4174,PAYLOAD,2024-01-10 17:08:10,15.08848397,0.0001276,53.2173,125.9697,102.8964,257.2171,4.0873e-05,3.63e-06,0.0,0 STARLINK-4174,1 53276U 22086AL  24010.71400650  .00000363  00000-0  40873-4 0  9999,2 53276  53.2173 125.9697 0001276 102.8964 257.2171 15.08848397 81918,6917.855,95.437,540.602,538.837,0.0
53276.0,STARLINK-4174,PAYLOAD,2024-01-11 13:48:10,15.08856982,0.0001615,53.2172,122.1044,89.85,270.2677,4.7889e-05,4.75e-06,0.0,0 STARLINK-4174,1 53276U 22086AL  24011.57511972  .00000475  00000-0  47889-4 0  9992,2 53276  53.2172 122.1044 0001615  89.8500 270.2677 15.08856982 82218,6917.828,95.436,540.811,538.576,0.0
53276.0,STARLINK-4174,PAYLOAD,2024-01-12 12:03:35,15.08838185,0.0001475,53.2171,117.9388,112.3523,247.7625,-3.9763e-06,-3.51e-06,0.0,0 STARLINK-4174,1 53276U 22086AL  24012.50249225 -.00000351  00000-0 -39763-5 0  9993,2 53276  53.2171 117.9388 0001475 112.3523 247.7625 15.08838185 82184,6917.886,95.438,540.771,538.731,0.0
53276.0,STARLINK-4174,PAYLOAD,2024-01-12 13:38:58,15.08838294,0.0001436,53.2171,117.6415,110.8069,249.3077,-2.2846e-06,-3.24e-06,0.0,0 STARLINK-4174,1 53276U 22086AL  24012.56873223 -.00000324  00000-0 -22846-5 0  9994,2 53276  53.2171 117.6415 0001436 110.8069 249.3077 15.08838294 82367,6917.886,95.438,540.744,538.757,0.0
53276.0,STARLINK-4174,PAYLOAD,2024-01-13 11:54:22,15.08844909,0.0001382,53.2174,113.48,98.762,261.3529,-2.6788e-05,-7.14e-06,0.0,0 STARLINK-4174,1 53276U 22086AL  24013.49609180 -.00000714  00000-0 -26788-4 0  9997,2 53276  53.2174 113.4800 0001382  98.7620 261.3529 15.08844909 82501,6917.865,95.437,540.686,538.774,0.0
53276.0,STARLINK-4174,PAYLOAD,2024-01-14 11:45:09,15.08857051,0.0001482,53.2173,109.0218,99.8198,260.2962,-0.00011375,-2.099e-05,0.0,0 STARLINK-4174,1 53276U 22086AL  24014.48968931 -.00002099  00000-0 -11375-3 0  9992,2 53276  53.2173 109.0218 0001482  99.8198 260.2962 15.08857051 82485,6917.828,95.436,540.718,538.668,0.0
53276.0,STARLINK-4174,PAYLOAD,2024-01-15 11:35:56,15.08840603,0.0001462,53.2179,104.5628,70.4325,289.6825,6.7867e-05,7.92e-06,0.0,0 STARLINK-4174,1 53276U 22086AL  24015.48329860  .00000792  00000-0  67867-4 0  9999,2 53276  53.2179 104.5628 0001462  70.4325 289.6825 15.08840603 82636,6917.879,95.438,540.755,538.732,0.0
53276.0,STARLINK-4174,PAYLOAD,2024-01-15 13:11:19,15.08843041,0.0001527,53.2176,104.2636,64.6089,295.5061,9.3043e-05,1.193e-05,0.0,0 STARLINK-4174,1 53276U 22086AL  24015.54953693  .00001193  00000-0  93043-4 0  9994,2 53276  53.2176 104.2636 0001527  64.6089 295.5061 15.08843041 82810,6917.871,95.437,540.792,538.68,0.0
53276.0,STARLINK-4174,PAYLOAD,2024-01-15 14:46:42,15.08849225,0.0001379,53.2169,103.9625,86.7127,273.4022,0.00011964,1.617e-05,0.0,0 STARLINK-4174,1 53276U 22086AL  24015.61577043  .00001617  00000-0  11964-3 0  9995,2 53276  53.2169 103.9625 0001379  86.7127 273.4022 15.08849225 82653,6917.852,95.437,540.671,538.763,0.0
53276.0,STARLINK-4174,PAYLOAD,2024-01-16 11:26:44,15.08839295,0.0001536,53.2175,100.0992,106.5212,253.5949,1.3869e-07,-2.86e-06,0.0,0 STARLINK-4174,1 53276U 22086AL  24016.47690069 -.00000286  00000-0  13869-6 0  9995,2 53276  53.2175 100.0992 0001536 106.5212 253.5949 15.08839295 82783,6917.883,95.438,540.81,538.685,0.0
53276.0,STARLINK-4174,PAYLOAD,2024-01-16 13:02:07,15.08840097,0.0001371,53.2169,99.802,93.6246,266.4903,2.792e-05,1.56e-06,0.0,0 STARLINK-4174,1 53276U 22086AL  24016.54314217  .00000156  00000-0  27920-4 0  9997,2 53276  53.2169  99.8020 0001371  93.6246 266.4903 15.08840097 82968,6917.88,95.438,540.694,538.797,0.0
53276.0,STARLINK-4174,PAYLOAD,2024-01-17 12:52:54,15.08850294,0.0001391,53.2179,95.3399,83.3725,276.7425,5.1029e-05,5.24e-06,0.0,0 STARLINK-4174,1 53276U 22086AL  24017.53673642  .00000524  00000-0  51029-4 0  9993,2 53276  53.2179  95.3399 0001391  83.3725 276.7425 15.08850294 83110,6917.849,95.437,540.676,538.752,0.0
53276.0,STARLINK-4174,PAYLOAD,2024-01-18 04:46:45,15.0883926,0.0001539,53.2179,92.3678,94.1374,265.9795,0.00012598,1.718e-05,0.0,0 STARLINK-4174,1 53276U 22086AL  24018.19914254  .00001718  00000-0  12598-3 0  9996,2 53276  53.2179  92.3678 0001539  94.1374 265.9795 15.08839260 83043,6917.883,95.438,540.812,538.683,0.0
53276.0,STARLINK-4174,PAYLOAD,2024-01-18 11:08:18,15.08844511,0.0001655,53.2172,91.1805,74.6789,285.4386,0.00018234,2.615e-05,0.0,0 STARLINK-4174,1 53276U 22086AL  24018.46409886  .00002615  00000-0  18234-3 0  9996,2 53276  53.2172  91.1805 0001655  74.6789 285.4386 15.08844511 83258,6917.867,95.437,540.877,538.587,0.0
53276.0,STARLINK-4174,PAYLOAD,2024-01-19 10:59:05,15.0883728,0.000189,53.2182,86.717,124.1954,235.9217,9.2477e-05,1.184e-05,0.0,0 STARLINK-4174,1 53276U 22086AL  24019.45770552  .00001184  00000-0  92477-4 0  9999,2 53276  53.2182  86.7170 0001890 124.1954 235.9217 15.08837280 83236,6917.889,95.438,541.061,538.446,0.0
53276.0,STARLINK-4174,PAYLOAD,2024-01-19 14:09:51,15.08843306,0.0001555,53.2175,86.1211,96.1782,263.9387,5.3249e-05,5.6e-06,0.0,0 STARLINK-4174,1 53276U 22086AL  24019.59018322  .00000560  00000-0  53249-4 0  9995,2 53276  53.2175  86.1211 0001555  96.1782 263.9387 15.08843306 83429,6917.87,95.437,540.811,538.66,0.0
53276.0,STARLINK-4174,PAYLOAD,2024-01-20 10:49:52,15.08849473,0.0001755,53.2177,82.2552,107.2522,252.8662,1.7597e-05,-8e-08,0.0,0 STARLINK-4174,1 53276U 22086AL  24020.45129958 -.00000008  00000-0  17597-4 0  9994,2 53276  53.2177  82.2552 0001755 107.2522 252.8662 15.08849473 83383,6917.851,95.437,540.931,538.502,0.0
53276.0,STARLINK-4174,PAYLOAD,2024-01-21 09:05:16,15.08837717,0.0001776,53.2177,78.094,99.9235,260.1957,8.5302e-05,1.07e-05,0.0,0 STARLINK-4174,1 53276U 22086AL  24021.37866737  .00001070  00000-0  85302-4 0  9997,2 53276  53.2177  78.0940 0001776  99.9235 260.1957 15.08837717 83521,6917.887,95.438,540.981,538.524,0.0
53276.0,STARLINK-4174,PAYLOAD,2024-01-21 13:51:25,15.08843781,0.0001785,53.2175,77.1989,107.092,253.0268,0.00010098,1.32e-05,0.0,0 STARLINK-4174,1 53276U 22086AL  24021.57738206  .00001320  00000-0  10098-3 0  9995,2 53276  53.2175  77.1989 0001785 107.0920 253.0268 15.08843781 83720,6917.869,95.437,540.969,538.499,0.0
53276.0,STARLINK-4174,PAYLOAD,2024-01-22 02:34:31,15.08834236,0.0002175,53.218,74.8166,122.8216,237.2986,3.4887e-05,2.67e-06,0.0,0 STARLINK-4174,1 53276U 22086AL  24022.10730964  .00000267  00000-0  34887-4 0  9990,2 53276  53.2180  74.8166 0002175 122.8216 237.2986 15.08834236 83809,6917.898,95.438,541.268,538.258,0.0
53276.0,STARLINK-4174,PAYLOAD,2024-01-22 08:56:03,15.08838967,0.0001895,53.218,73.6358,106.3183,253.8018,3.5178e-05,2.72e-06,0.0,0 STARLINK-4174,1 53276U 22086AL  24022.37226825  .00000272  00000-0  35178-4 0  9995,2 53276  53.2180  73.6358 0001895 106.3183 253.8018 15.08838967 83846,6917.884,95.438,541.059,538.438,0.0
53276.0,STARLINK-4174,PAYLOAD,2024-01-23 07:11:27,15.08841444,0.0001872,53.2176,69.4727,113.032,247.0869,2.4655e-05,1.04e-06,0.0,0 STARLINK-4174,1 53276U 22086AL  24023.29962848  .00000104  00000-0  24655-4 0  9991,2 53276  53.2176  69.4727 0001872 113.0320 247.0869 15.08841444 83985,6917.876,95.437,541.036,538.446,0.0
53276.0,STARLINK-4174,PAYLOAD,2024-01-23 10:22:14,15.08843819,0.0001581,53.2172,68.879,92.1128,268.0045,4.5338e-05,4.34e-06,0.0,0 STARLINK-4174,1 53276U 22086AL  24023.43210785  .00000434  00000-0  45338-4 0  9990,2 53276  53.2172  68.8790 0001581  92.1128 268.0045 15.08843819 83835,6917.869,95.437,540.827,538.64,0.0
53276.0,STARLINK-4174,PAYLOAD,2024-01-24 10:13:01,15.08839657,0.0002174,53.2189,64.4173,75.4006,284.7227,5.4106e-05,5.73e-06,0.0,0 STARLINK-4174,1 53276U 22086AL  24024.42571509  .00000573  00000-0  54106-4 0  9991,2 53276  53.2189  64.4173 0002174  75.4006 284.7227 15.08839657 83986,6917.881,95.438,541.25,538.242,0.0
